     2.100          NAVIGATION                              RINEX VERSION / TYPE
fic2rin                                 12/23/2014 00:19:26 PGM / RUN BY / DATE
                                                            END OF HEADER
 8 14 12 22 14  0  0.0  .168485566974D-04  .113686837722D-12  .000000000000D+00
     .310000000000D+02  .142687500000D+03  .363122268357D-08 -.251403431011D+01
     .735186040401D-05  .147465848131D-01  .451691448689D-05  .515219787979D+04
     .136800000000D+06 -.372529029846D-08 -.218910931036D+01 -.176951289177D-06
     .995281962540D+00  .311781250000D+03 -.267889883590D+01 -.768853454404D-08
     .501092301077D-09  .100000000000D+01  .182400000000D+04  .000000000000D+00
     .240000000000D+01  .630000000000D+02 -.465661287308D-08  .310000000000D+02
     .129606000000D+06  .400000000000D+01
 9 14 12 22 14  0  0.0 -.340188853443D-04 -.977706804406D-11  .000000000000D+00
     .610000000000D+02  .429375000000D+02  .424839124826D-08 -.159227739455D+01
     .212341547012D-05  .216924818233D-03  .122860074043D-04  .515369201851D+04
     .136800000000D+06  .204890966415D-07  .291527899705D+01 -.167638063431D-07
     .959087354821D+00  .140625000000D+03  .258558914145D+01 -.773496504948D-08
    -.641098132882D-09  .100000000000D+01  .182400000000D+04  .000000000000D+00
     .240000000000D+01  .000000000000D+00  .465661287308D-09  .610000000000D+02
     .129606000000D+06  .400000000000D+01
10 14 12 22 14  0  0.0 -.155377201736D-03 -.181898940355D-11  .000000000000D+00
     .100000000000D+03 -.120937500000D+02  .563594904561D-08  .252078923779D+00
    -.415369868279D-06  .144650626462D-01  .477582216263D-05  .515363122177D+04
     .136800000000D+06 -.987201929092D-07  .188179724009D+01  .216066837311D-06
     .941054935035D+00  .275437500000D+03  .911245302030D+00 -.872464913094D-08
    -.364300888880D-09  .100000000000D+01  .182400000000D+04  .000000000000D+00
     .240000000000D+01  .000000000000D+00 -.325962901115D-08  .100000000000D+03
     .129606000000D+06  .400000000000D+01
12 14 12 22 14  0  0.0  .255513936281D-03  .284217094304D-11  .000000000000D+00
     .520000000000D+02 -.480312500000D+02  .417195949314D-08  .225429576817D+01
    -.252760946751D-05  .506610947195D-02  .100582838058D-06  .515376116562D+04
     .136800000000D+06 -.651925802231D-07 -.122648367165D+01  .260770320892D-07
     .988738817123D+00  .390968750000D+03  .500035619439D+00 -.824677208259D-08
    -.875036448780D-10  .100000000000D+01  .182400000000D+04  .000000000000D+00
     .240000000000D+01  .000000000000D+00 -.121071934700D-07  .520000000000D+02
     .129606000000D+06  .400000000000D+01
13 14 12 22 14  0  0.0 -.718687660992D-04 -.341060513165D-11  .000000000000D+00
     .370000000000D+02  .535312500000D+02  .377015704217D-08 -.270966093244D+01
     .271946191788D-05  .584582670126D-02  .133235007524D-04  .515589216805D+04
     .136800000000D+06  .242143869400D-07  .302785756087D+01  .316649675369D-07
     .975969224647D+00  .129843750000D+03  .220325262680D+01 -.741245161551D-08
    -.616097091488D-09  .100000000000D+01  .182400000000D+04  .000000000000D+00
     .240000000000D+01  .000000000000D+00 -.111758708954D-07  .370000000000D+02
     .129606000000D+06  .400000000000D+01
14 14 12 22 14  0  0.0  .103988684714D-03 -.352429196937D-11  .000000000000D+00
     .900000000000D+02  .455000000000D+02  .404981154805D-08 -.996311106391D+00
     .237487256527D-05  .777153519448D-02  .119581818581D-04  .515377217865D+04
     .136800000000D+06  .130385160446D-07  .299435842652D+01  .225380063057D-06
     .968459966668D+00  .156812500000D+03 -.196448628387D+01 -.777425240025D-08
    -.560023327219D-09  .100000000000D+01  .182400000000D+04  .000000000000D+00
     .240000000000D+01  .000000000000D+00 -.931322574615D-08  .900000000000D+02
     .129606000000D+06  .400000000000D+01
15 14 12 22 14  0  0.0 -.221836846322D-03 -.227373675443D-11  .000000000000D+00
     .720000000000D+02  .915625000000D+01  .481127183736D-08 -.167277213436D+01
     .413507223129D-06  .694621331058D-02  .118594616652D-04  .515356766891D+04
     .136800000000D+06 -.614672899246D-07  .287551890687D+01 -.143423676491D-06
     .935001590684D+00  .137625000000D+03  .339881749851D+00 -.797640367780D-08
    -.590738892360D-09  .100000000000D+01  .182400000000D+04  .000000000000D+00
     .240000000000D+01  .000000000000D+00 -.102445483208D-07  .720000000000D+02
     .129606000000D+06  .400000000000D+01
16 14 12 22 14  0  0.0 -.171176157892D-03  .306954461848D-11  .000000000000D+00
     .400000000000D+02 -.712500000000D+02  .416695928487D-08  .112748941109D+00
    -.361166894436D-05  .783026078716D-02  .676140189171D-06  .515371483803D+04
     .136800000000D+06  .949949026108D-07 -.120784140374D+01 -.186264514923D-08
     .989315050314D+00  .378656250000D+03  .229943301124D+00 -.834034740895D-08
    -.146077513286D-09  .100000000000D+01  .182400000000D+04  .000000000000D+00
     .240000000000D+01  .000000000000D+00 -.102445483208D-07  .400000000000D+02
     .129606000000D+06  .400000000000D+01
18 14 12 22 14  0  0.0  .366907566786D-03  .261479726760D-11  .000000000000D+00
     .450000000000D+02 -.139062500000D+02  .605989527610D-08  .675778197789D+00
    -.627711415291D-06  .155234589474D-01  .467337667942D-05  .515373798943D+04
     .136800000000D+06 -.150874257088D-06  .185598197177D+01  .819563865662D-07
     .924813163552D+00  .274812500000D+03 -.199938577314D+01 -.907216360631D-08
    -.374301305437D-09  .100000000000D+01  .182400000000D+04  .000000000000D+00
     .240000000000D+01  .000000000000D+00 -.111758708954D-07  .450000000000D+02
     .129606000000D+06  .400000000000D+01
19 14 12 22 14  0  0.0 -.493500847369D-03 -.159161572810D-11  .000000000000D+00
     .380000000000D+02 -.122218750000D+03  .404838291711D-08 -.164594034571D+01
    -.656209886074D-05  .107620148920D-01  .114161521196D-04  .515368486214D+04
     .136800000000D+06  .838190317154D-07 -.128890766029D+00 -.154599547386D-06
     .968334964707D+00  .159218750000D+03  .514708045553D+00 -.765281877062D-08
     .165721188667D-09  .100000000000D+01  .182400000000D+04  .000000000000D+00
     .240000000000D+01  .000000000000D+00 -.149011611938D-07  .380000000000D+02
     .129606000000D+06  .400000000000D+01
20 14 12 22 14  0  0.0  .270165037364D-03  .432009983342D-11  .000000000000D+00
     .780000000000D+02 -.108437500000D+02  .592167523297D-08  .122629809610D+01
    -.648200511932D-06  .581779843196D-02  .462867319584D-05  .515577827644D+04
     .136800000000D+06 -.132247805595D-06  .180310970004D+01 -.558793544769D-08
     .925932962973D+00  .271468750000D+03  .123600985332D+01 -.872000608040D-08
    -.243224416988D-09  .100000000000D+01  .182400000000D+04  .000000000000D+00
     .240000000000D+01  .000000000000D+00 -.838190317154D-08  .780000000000D+02
     .129606000000D+06  .400000000000D+01
21 14 12 22 14  0  0.0 -.401653349400D-03 -.216004991671D-11  .000000000000D+00
     .830000000000D+02  .121875000000D+02  .526057626697D-08  .165808144079D+01
     .381842255592D-06  .218843510374D-01  .990554690361D-05  .515364485931D+04
     .136800000000D+06 -.422820448875D-06  .811543164670D+00 -.508502125740D-06
     .933115388961D+00  .180437500000D+03 -.196830623508D+01 -.832356099544D-08
     .722530096279D-09  .100000000000D+01  .182400000000D+04  .000000000000D+00
     .240000000000D+01  .000000000000D+00 -.116415321827D-07  .830000000000D+02
     .129606000000D+06  .400000000000D+01
22 14 12 22 14  0  0.0  .299382489175D-03  .363797880709D-11  .000000000000D+00
     .550000000000D+02 -.149375000000D+02  .607203863907D-08  .169057923404D+00
    -.668689608574D-06  .731706561055D-02  .437349081039D-05  .515370091629D+04
     .136800000000D+06 -.167638063431D-07  .185746264090D+01 -.186264514923D-08
     .922613064960D+00  .273937500000D+03 -.206614516047D+01 -.897394522941D-08
    -.327870799992D-09  .100000000000D+01  .182400000000D+04  .000000000000D+00
     .340000000000D+01  .000000000000D+00 -.176951289177D-07  .550000000000D+02
     .129606000000D+06  .400000000000D+01
23 14 12 22 14  0  0.0 -.762855634093D-04 -.272848410532D-11  .000000000000D+00
     .960000000000D+02  .397812500000D+02  .441268380599D-08 -.209694962897D+01
     .183098018169D-05  .968696514610D-02  .122021883726D-04  .515369465637D+04
     .136800000000D+06  .763684511185D-07  .292531638228D+01 -.145286321640D-06
     .950157388338D+00  .137750000000D+03 -.271585923880D+01 -.773425073402D-08
    -.503949562951D-09  .100000000000D+01  .182400000000D+04  .000000000000D+00
     .240000000000D+01  .000000000000D+00 -.200234353542D-07  .960000000000D+02
     .129606000000D+06  .400000000000D+01
24 14 12 22 14  0  0.0 -.405088067055D-04 -.682121026330D-12  .000000000000D+00
     .117000000000D+03  .150437500000D+03  .445589989183D-08 -.270490255878D+01
     .785849988461D-05  .275866140146D-02  .699982047081D-05  .515369725609D+04
     .136800000000D+06 -.186264514923D-07 -.233134716162D+01 -.149011611938D-07
     .955145718087D+00  .242937500000D+03  .223500026199D+00 -.814033907780D-08
     .375372778640D-09  .100000000000D+01  .182400000000D+04  .000000000000D+00
     .340000000000D+01  .000000000000D+00  .279396772385D-08  .117000000000D+03
     .129606000000D+06  .400000000000D+01
25 14 12 22 14  0  0.0  .787572935224D-05 -.216004991671D-11  .000000000000D+00
     .330000000000D+02 -.397812500000D+02  .446161441558D-08  .152026989979D+01
    -.220537185669D-05  .390171865001D-02 -.379979610443D-06  .515374792099D+04
     .136800000000D+06 -.558793544769D-08 -.127132719734D+01  .819563865662D-07
     .977325513553D+00  .393093750000D+03  .674633167419D+00 -.845428072616D-08
    -.721458623076D-10  .100000000000D+01  .182400000000D+04  .000000000000D+00
     .240000000000D+01  .000000000000D+00  .512227416039D-08  .330000000000D+02
     .129606000000D+06  .400000000000D+01
